ONEWEB-0210             
1 48787U 21045W   24137.51397744  .00000143  00000+0  34692-3 0  9997
2 48787  87.9052  50.7553 0001805 109.2499 250.8826 13.15553296144178
ONEWEB-0214             
1 48788U 21045X   24137.29530513  .00000123  00000+0  29161-3 0  9999
2 48788  87.9051  50.7876 0001545  97.8464 262.2842 13.15547841144119
ONEWEB-0221             
1 48789U 21045Y   24137.45376069  .00000217  00000+0  54344-3 0  9997
2 48789  87.9056  50.7730 0002064  87.0238 273.1129 13.15549506144222
ONEWEB-0213             
1 48790U 21045Z   24137.51872553  .00000211  00000+0  52588-3 0  9997
2 48790  87.9055  50.7744 0002079  90.9633 269.1735 13.15548270145424
ONEWEB-0212             
1 48791U 21045AA  24137.49576109  .00000015  00000+0  44895-5 0  9999
2 48791  87.9057  50.7609 0001966  77.5964 282.5386 13.15552031145420
ONEWEB-0227             
1 48792U 21045AB  24137.49496030  .00000027  00000+0  37613-4 0  9996
2 48792  87.9056  50.7770 0002040  83.4494 276.6868 13.15548465145365
ONEWEB-0226             
1 48793U 21045AC  24137.48862231 -.00000056  00000+0 -18194-3 0  9992
2 48793  87.9057  50.7849 0001964  97.3968 262.7385 13.15548130145323
ONEWEB-0224             
1 48794U 21045AD  24137.45219282  .00000146  00000+0  35468-3 0  9993
2 48794  87.9058  50.8121 0003058  81.5538 278.5939 13.15550480144121
